{
    "links": {
        "self": "http://www.neowsapp.com/rest/v1/neo/54051160?api_key=iIulBulltgU6a56xZRHN4H3l9WmuAYTsLGpBGhQ2"
    },
    "id": "54051160",
    "neo_reference_id": "54051160",
    "name": "(2020 PD6)",
    "designation": "2020 PD6",
    "nasa_jpl_url": "http://ssd.jpl.nasa.gov/sbdb.cgi?sstr=54051160",
    "absolute_magnitude_h": 24.265,
    "estimated_diameter": {
        "kilometers": {
            "estimated_diameter_min": 0.0372867883,
            "estimated_diameter_max": 0.0833757932
        },
        "meters": {
            "estimated_diameter_min": 37.2867882673,
            "estimated_diameter_max": 83.3757932282
        },
        "miles": {
            "estimated_diameter_min": 0.0231689289,
            "estimated_diameter_max": 0.0518073
        },
        "feet": {
            "estimated_diameter_min": 122.3319864187,
            "estimated_diameter_max": 273.5426374549
        }
    },
    "is_potentially_hazardous_asteroid": false,
    "close_approach_data": [
        {
            "close_approach_date": "2020-08-16",
            "close_approach_date_full": "2020-Aug-16 20:15",
            "epoch_date_close_approach": 1597608900000,
            "relative_velocity": {
                "kilometers_per_second": "8.1839190322",
                "kilometers_per_hour": "29462.108515867",
                "miles_per_hour": "18306.6084830952"
            },
            "miss_distance": {
                "astronomical": "0.2305302818",
                "lunar": "89.6762796202",
                "kilometers": "34486839.127779766",
                "miles": "21429128.1521261308"
            },
            "orbiting_body": "Earth"
        },
        {
            "close_approach_date": "2022-08-08",
            "close_approach_date_full": "2022-Aug-08 00:31",
            "epoch_date_close_approach": 1659918660000,
            "relative_velocity": {
                "kilometers_per_second": "8.4323875122",
                "kilometers_per_hour": "30356.5950438002",
                "miles_per_hour": "18862.4076259657"
            },
            "miss_distance": {
                "astronomical": "0.2574865497",
                "lunar": "100.1622678333",
                "kilometers": "38519439.388769139",
                "miles": "23934869.7615225582"
            },
            "orbiting_body": "Earth"
        }
    ],
    "orbital_data": {
        "orbit_id": "1",
        "orbit_determination_date": "2020-08-18 09:12:05",
        "first_observation_date": "2020-08-13",
        "last_observation_date": "2020-08-18",
        "data_arc_in_days": 5,
        "observations_used": 13,
        "orbit_uncertainty": "8",
        "minimum_orbit_intersection": ".215077",
        "jupiter_tisserand_invariant": "4.275",
        "epoch_osculation": "2459077.5",
        "eccentricity": ".2367177930546136",
        "semi_major_axis": "1.608273882045674",
        "inclination": "15.8038345339196",
        "ascending_node_longitude": "323.3818528332088",
        "orbital_period": "744.9694109456823",
        "perihelion_distance": "1.227566838060446",
        "perihelion_argument": "355.1589288489309",
        "aphelion_distance": "1.988980926030902",
        "perihelion_time": "2459066.699193412355",
        "mean_anomaly": "5.219396010658089",
        "mean_motion": ".4832413179797641",
        "equinox": "J2000",
        "orbit_class": {
            "orbit_class_type": "AMO",
            "orbit_class_description": "Near-Earth asteroid orbits similar to that of 1221 Amor",
            "orbit_class_range": "1.017 AU < q (perihelion) < 1.3 AU"
        }
    },
    "is_sentry_object": false
}